#aV2008  1 11  0  0   .00000000      96 DD+AD WGS84 FIT  NGA
## 1461 432000.00000000   900.00000000 54476  .0000000000000
+   32     1  2  3  4  5  6  7  8  9 10 11 12 13 14 15 16 17
+         18 19 20 21 22 23 24 25 26 27 28 29 30 31 32  0  0
+          0  0  0  0  0  0  0  0  0  0  0  0  0  0  0  0  0
+          0  0  0  0  0  0  0  0  0  0  0  0  0  0  0  0  0
+          0  0  0  0  0  0  0  0  0  0  0  0  0  0  0  0  0
++         0  0  0  0  0  0  0  0  0  0  0  0  0  0  0  0  0
++         0  0  0  0  0  0  0  0  0  0  0  0  0  0  0  0  0
++         0  0  0  0  0  0  0  0  0  0  0  0  0  0  0  0  0
++         0  0  0  0  0  0  0  0  0  0  0  0  0  0  0  0  0
++         0  0  0  0  0  0  0  0  0  0  0  0  0  0  0  0  0
%c cc cc ccc ccc cccc cccc cccc cccc ccccc ccccc ccccc ccccc
%c cc cc ccc ccc cccc cccc cccc cccc ccccc ccccc ccccc ccccc
%f  0.0000000  0.000000000  0.00000000000  0.000000000000000
%f  0.0000000  0.000000000  0.00000000000  0.000000000000000
%i    0    0    0    0      0      0      0      0         0
%i    0    0    0    0      0      0      0      0         0
/*      NGA, ST. LOUIS,MO.                                  
/*   EPHEMERIS COMPUTED FROM  3 DAYS OF DATA                
/* CCCCCCCCCCCCCCCCCCCCCCCCCCCCCCCCCCCCCCCCCCCCCCCCCCCCCCCCC
/* CCCCCCCCCCCCCCCCCCCCCCCCCCCCCCCCCCCCCCCCCCCCCCCCCCCCCCCCC
*  2008  1 11 21 30   .00000000                                                 
P  1 -15838.356824  13760.805994 -16019.624719    178.418628                    
V  1   5435.101172 -20045.256510 -22355.574351       .024672                    
P  2  20994.913743 -12648.281589   9629.166040    165.519761                    
V  2  13045.686489     10.957641 -28212.615337       .029872                    
P  3 -10944.259041  22058.870963   9245.192323    171.440963                    
V  3  -1679.778053 -12740.467356  28021.368450       .054704                    
P  4  26202.535193  -5318.430236  -1274.256576    -50.185159                    
V  4   -749.088399   3303.428648 -31074.411883      -.058234                    
P  5 -14499.077289 -20734.025042  -8575.673096    642.037147                    
V  5   9907.205382   4621.234321 -28665.785594       .173319                    
P  6  -9958.013524 -16618.032810  18340.381913    156.342199                    
V  6   7250.644130 -21939.996336 -16138.770915      -.151289                    
P  7 -12164.573743 -13234.048989  19880.815784     49.468304                    
V  7   6507.195288 -23788.430191 -12080.685828       .317041                    
P  8  25274.251766    960.617237   8760.649982   -136.681174                    
V  8 -10562.080565   3765.551911  29293.940670      -.011837                    
P  9     16.581755 -15730.349844 -21998.180901    105.216614                    
V  9  25543.431339  -6980.124376   5329.319137       .018134                    
P 10   7754.472893 -13414.377424  21407.755023   -205.037799                    
V 10  19110.978334  19795.604878   5774.868924      -.155406                    
P 11   4035.562426  16429.789689 -20591.460194     26.970642                    
V 11 -24121.878887  10209.261020   3769.650010       .000409                    
P 12  -9331.970834 -21720.210978 -12089.730004   -353.944031                    
V 12  12373.699078   9543.983915 -26425.119758      -.009677                    
P 13   8578.237348  15215.125528  19914.254868    233.638338                    
V 13  -8723.329579  23891.548727 -14393.425264       .023156                    
P 14 -15450.120248   2327.240091 -21359.799054   -306.308593                    
V 14   7621.787916 -26223.963878  -8418.614690       .028826                    
P 15   6200.292042 -25805.634118  -1150.526748    -71.243744                    
V 15   3207.006295   -676.132312  31628.947757      -.009248                    
P 16 -11800.808779   9554.445408  21871.663867    131.523543                    
V 16 -18835.501962 -20137.409476  -1201.240830       .008359                    
P 17  15877.751872  -1254.152824 -21212.832727     44.601892                    
V 17  -6986.143581  26102.416125  -6912.819246      -.007869                    
P 18 -19599.510416 -17767.141772  -3787.750527   -212.886225                    
V 18  -1219.179433  -5595.007952  30809.305508       .027567                    
P 19  -7785.370977  25237.731575  -1701.860585     16.272332                    
V 19  -3662.277916   1099.617580  31680.481641       .016320                    
P 20  11575.051260  21762.551852 -10063.277111    122.759034                    
V 20 -10870.468498  -6986.669090 -27864.339999      -.007335                    
P 21 -20141.442732  -7626.729368  16071.149229     73.792928                    
V 21  19061.111324  -6235.188722  20540.085166      -.006464                    
P 22 -20552.715251  -6554.847224 -15360.705786    206.789795                    
V 22 -11426.624771 -16341.098551  21997.621315       .005394                    
P 23    623.329973  24181.693442  10629.915843    325.511964                    
V 23  -6045.010954  12474.953305 -28081.433223       .030322                    
P 24  -7211.235363 -14098.782746  21464.741027     61.607200                    
V 24  26280.585331  -5812.595952   5339.731455       .031044                    
P 25  14020.540593  10144.852470  20472.411543    499.701630                    
V 25 -23423.533311   9397.665146  11751.663928       .033777                    
P 26   8784.813900 -24699.894792    922.952894    152.714884                    
V 26   1609.792685   2374.269581  32806.646907       .107623                    
P 27  19507.636996   6523.205810  17572.314104    160.273791                    
V 27 -19559.764654   7570.179612  19484.466120       .025144                    
P 28  21065.541627   9481.484902 -13050.865619    -13.520261                    
V 28  10023.818676  13915.270236  25241.363085      -.004938                    
P 29  -4548.883563 -21459.331769  15115.183706    -82.336720                    
V 29   7471.886293 -17568.704694 -22886.134604       .102011                    
P 30 -17908.431410 -19568.313841  -2496.099341     59.536954                    
V 30   4141.028264   -328.685479 -31198.189407       .014104                    
P 31 -25520.274602   7449.141491   1299.937661     -4.940725                    
V 31  -1989.405853  -2154.039179 -31752.295968      -.014793                    
P 32 -16639.463977   1416.106348 -20153.692700    199.044080                    
V 32 -16058.564595 -21285.306890  11661.329741       .107283                    
EOF
